CTC1_L_00587007-03
1 48488U 25224VU  26037.47809028  .00000000  00000+0  00000-0 0  9992
2 48488  50.0000 180.0000 0000000   0.0000 144.0000  6.30405331    13
CTC1_L_00587007-04
1 48489U 26034YR  26037.47809028  .00000000  00000+0  00000-0 0  9993
2 48489  50.0000 180.0000 0000000   0.0000 180.0000  6.30405331    14
CTC1_L_00587007-05
1 48490U 22091D   26037.47809028  .00000000  00000+0  00000-0 0  9994
2 48490  50.0000 180.0000 0000000   0.0000 216.0000  6.30405331    16
CTC1_L_00587007-06
1 48491U 23709BU  26037.47809028  .00000000  00000+0  00000-0 0  9992
2 48491  50.0000 180.0000 0000000   0.0000 252.0000  6.30405331    17
CTC1_L_00587007-07
1 48492U 25925ZA  26037.47809028  .00000000  00000+0  00000-0 0  9995
2 48492  50.0000 180.0000 0000000   0.0000 288.0000  6.30405331    17
CTC1_L_00587007-08
1 48493U 22561S   26037.47809028  .00000000  00000+0  00000-0 0  9999
2 48493  50.0000 180.0000 0000000   0.0000 324.0000  6.30405331    19
CTC1_L_00587007-09
1 48494U 24668YO  26037.47809028  .00000000  00000+0  00000-0 0  9990
2 48494  50.0000 180.0000 0000000   0.0000   0.0000  6.30405331    11
CTC1_L_00587007-10
1 48495U 23376SQ  26037.47809028  .00000000  00000+0  00000-0 0  9996
2 48495  50.0000 180.0000 0000000   0.0000  36.0000  6.30405331    11
CTC1_L_00587008-01
1 48496U 23294QZ  26037.47809028  .00000000  00000+0  00000-0 0  9996
2 48496  50.0000 210.0000 0000000   0.0000  84.0000  6.30405331    19
CTC1_L_00587008-02
1 48497U 25894IZ  26037.47809028  .00000000  00000+0  00000-0 0  9995
2 48497  50.0000 210.0000 0000000   0.0000 120.0000  6.30405331    11
CTC1_L_00587008-03
1 48498U 23219EP  26037.47809028  .00000000  00000+0  00000-0 0  9995
2 48498  50.0000 210.0000 0000000   0.0000 156.0000  6.30405331    11
CTC1_L_00587008-04
1 48499U 24084SA  26037.47809028  .00000000  00000+0  00000-0 0  9997
2 48499  50.0000 210.0000 0000000   0.0000 192.0000  6.30405331    12
CTC1_L_00587008-05
1 48500U 26385OV  26037.47809028  .00000000  00000+0  00000-0 0  9996
2 48500  50.0000 210.0000 0000000   0.0000 228.0000  6.30405331    15
CTC1_L_00587008-06
1 48501U 26634WE  26037.47809028  .00000000  00000+0  00000-0 0  9994
2 48501  50.0000 210.0000 0000000   0.0000 264.0000  6.30405331    16
CTC1_L_00587008-07
1 48502U 24211OK  26037.47809028  .00000000  00000+0  00000-0 0  9994
2 48502  50.0000 210.0000 0000000   0.0000 300.0000  6.30405331    18
CTC1_L_00587008-08
1 48503U 22631NT  26037.47809028  .00000000  00000+0  00000-0 0  9999
2 48503  50.0000 210.0000 0000000   0.0000 336.0000  6.30405331    18
CTC1_L_00587008-09
1 48504U 22113FY  26037.47809028  .00000000  00000+0  00000-0 0  9995
2 48504  50.0000 210.0000 0000000   0.0000  12.0000  6.30405331    10
CTC1_L_00587008-10
1 48505U 26166GV  26037.47809028  .00000000  00000+0  00000-0 0  9998
2 48505  50.0000 210.0000 0000000   0.0000  48.0000  6.30405331    10
CTC1_L_00587009-01
1 48506U 22626RU  26037.47809028  .00000000  00000+0  00000-0 0  9996
2 48506  50.0000 240.0000 0000000   0.0000  96.0000  6.30405331    17
CTC1_L_00587009-02
1 48507U 26592WW  26037.47809028  .00000000  00000+0  00000-0 0  9993
2 48507  50.0000 240.0000 0000000   0.0000 132.0000  6.30405331    19
CTC1_L_00587009-03
1 48508U 26477WP  26037.47809028  .00000000  00000+0  00000-0 0  9996
2 48508  50.0000 240.0000 0000000   0.0000 168.0000  6.30405331    19
CTC1_L_00587009-04
1 48509U 26214PM  26037.47809028  .00000000  00000+0  00000-0 0  9996
2 48509  50.0000 240.0000 0000000   0.0000 204.0000  6.30405331    11
CTC1_L_00587009-05
1 48510U 22349KX  26037.47809028  .00000000  00000+0  00000-0 0  9993
2 48510  50.0000 240.0000 0000000   0.0000 240.0000  6.30405331    13
CTC1_L_00587009-06
1 48511U 25250ZT  26037.47809028  .00000000  00000+0  00000-0 0  9998
2 48511  50.0000 240.0000 0000000   0.0000 276.0000  6.30405331    13
CTC1_L_00587009-07
1 48512U 23301IT  26037.47809028  .00000000  00000+0  00000-0 0  9994
2 48512  50.0000 240.0000 0000000   0.0000 312.0000  6.30405331    15
CTC1_L_00587009-08
1 48513U 22178JS  26037.47809028  .00000000  00000+0  00000-0 0  9996
2 48513  50.0000 240.0000 0000000   0.0000 348.0000  6.30405331    15
CTC1_L_00587009-09
1 48514U 22109RO  26037.47809028  .00000000  00000+0  00000-0 0  9991
2 48514  50.0000 240.0000 0000000   0.0000  24.0000  6.30405331    17
CTC1_L_00587009-10
1 48515U 23901LE  26037.47809028  .00000000  00000+0  00000-0 0  9993
2 48515  50.0000 240.0000 0000000   0.0000  60.0000  6.30405331    18
CTC1_L_00587010-01
1 48516U 24175CT  26037.47809028  .00000000  00000+0  00000-0 0  9998
2 48516  50.0000 270.0000 0000000   0.0000 108.0000  6.30405331    15
CTC1_L_00587010-02
1 48517U 23952AB  26037.47809028  .00000000  00000+0  00000-0 0  9991
2 48517  50.0000 270.0000 0000000   0.0000 144.0000  6.30405331    16
CTC1_L_00587010-03
1 48518U 25674PV  26037.47809028  .00000000  00000+0  00000-0 0  9995
2 48518  50.0000 270.0000 0000000   0.0000 180.0000  6.30405331    17
CTC1_L_00587010-04
1 48519U 22325SS  26037.47809028  .00000000  00000+0  00000-0 0  9996
2 48519  50.0000 270.0000 0000000   0.0000 216.0000  6.30405331    18
CTC1_L_00587010-05
1 48520U 22756UF  26037.47809028  .00000000  00000+0  00000-0 0  9996
2 48520  50.0000 270.0000 0000000   0.0000 252.0000  6.30405331    10
CTC1_L_00587010-06
1 48521U 25020LQ  26037.47809028  .00000000  00000+0  00000-0 0  9994
2 48521  50.0000 270.0000 0000000   0.0000 288.0000  6.30405331    10
CTC1_L_00587010-07
1 48522U 22918XC  26037.47809028  .00000000  00000+0  00000-0 0  9998
2 48522  50.0000 270.0000 0000000   0.0000 324.0000  6.30405331    12
CTC1_L_00587010-08
1 48523U 26723JS  26037.47809028  .00000000  00000+0  00000-0 0  9997
2 48523  50.0000 270.0000 0000000   0.0000   0.0000  6.30405331    14
CTC1_L_00587010-09
1 48524U 23530HT  26037.47809028  .00000000  00000+0  00000-0 0  9991
2 48524  50.0000 270.0000 0000000   0.0000  36.0000  6.30405331    14
CTC1_L_00587010-10
1 48525U 26161AF  26037.47809028  .00000000  00000+0  00000-0 0  9995
2 48525  50.0000 270.0000 0000000   0.0000  72.0000  6.30405331    15
CTC1_L_00587011-01
1 48526U 25745CJ  26037.47809028  .00000000  00000+0  00000-0 0  9993
2 48526  50.0000 300.0000 0000000   0.0000 120.0000  6.30405331    14
CTC1_L_00587011-02
1 48527U 24907LN  26037.47809028  .00000000  00000+0  00000-0 0  9993
2 48527  50.0000 300.0000 0000000   0.0000 156.0000  6.30405331    14
CTC1_L_00587011-03
1 48528U 22871KA  26037.47809028  .00000000  00000+0  00000-0 0  9992
2 48528  50.0000 300.0000 0000000   0.0000 192.0000  6.30405331    15
CTC1_L_00587011-04
1 48529U 23287VU  26037.47809028  .00000000  00000+0  00000-0 0  9995
2 48529  50.0000 300.0000 0000000   0.0000 228.0000  6.30405331    16
CTC1_L_00587011-05
1 48530U 22386SG  26037.47809028  .00000000  00000+0  00000-0 0  9996
2 48530  50.0000 300.0000 0000000   0.0000 264.0000  6.30405331    18
CTC1_L_00587011-06
1 48531U 24815JK  26037.47809028  .00000000  00000+0  00000-0 0  9996
2 48531  50.0000 300.0000 0000000   0.0000 300.0000  6.30405331    10
CTC1_L_00587011-07
1 48532U 23001YH  26037.47809028  .00000000  00000+0  00000-0 0  9993
2 48532  50.0000 300.0000 0000000   0.0000 336.0000  6.30405331    10
CTC1_L_00587011-08
1 48533U 24611DI  26037.47809028  .00000000  00000+0  00000-0 0  9992
2 48533  50.0000 300.0000 0000000   0.0000  12.0000  6.30405331    12
CTC1_L_00587011-09
1 48534U 25423NA  26037.47809028  .00000000  00000+0  00000-0 0  9995
2 48534  50.0000 300.0000 0000000   0.0000  48.0000  6.30405331    12
CTC1_L_00587011-10
1 48535U 23252JN  26037.47809028  .00000000  00000+0  00000-0 0  9994
2 48535  50.0000 300.0000 0000000   0.0000  84.0000  6.30405331    13
CTC1_L_00587012-01
1 48536U 22359GA  26037.47809028  .00000000  00000+0  00000-0 0  9992
2 48536  50.0000 330.0000 0000000   0.0000 132.0000  6.30405331    11
CTC1_L_00587012-02
1 48537U 23831IK  26037.47809028  .00000000  00000+0  00000-0 0  9999
2 48537  50.0000 330.0000 0000000   0.0000 168.0000  6.30405331    11
CTC1_L_00587012-03
1 48538U 22628XM  26037.47809028  .00000000  00000+0  00000-0 0  9993
2 48538  50.0000 330.0000 0000000   0.0000 204.0000  6.30405331    13
CTC1_L_00587012-04
1 48539U 23191ZP  26037.47809028  .00000000  00000+0  00000-0 0  9990
2 48539  50.0000 330.0000 0000000   0.0000 240.0000  6.30405331    14
CTC1_L_00587012-05
1 48540U 25501ZR  26037.47809028  .00000000  00000+0  00000-0 0  9999
2 48540  50.0000 330.0000 0000000   0.0000 276.0000  6.30405331    15
CTC1_L_00587012-06
1 48541U 25801MO  26037.47809028  .00000000  00000+0  00000-0 0  9993
2 48541  50.0000 330.0000 0000000   0.0000 312.0000  6.30405331    17
CTC1_L_00587012-07
1 48542U 23232CN  26037.47809028  .00000000  00000+0  00000-0 0  9990
2 48542  50.0000 330.0000 0000000   0.0000 348.0000  6.30405331    17
CTC1_L_00587012-08
1 48543U 26551SL  26037.47809028  .00000000  00000+0  00000-0 0  9998
2 48543  50.0000 330.0000 0000000   0.0000  24.0000  6.30405331    19
CTC1_L_00587012-09
1 48544U 24753GM  26037.47809028  .00000000  00000+0  00000-0 0  9991
2 48544  50.0000 330.0000 0000000   0.0000  60.0000  6.30405331    10
CTC1_L_00587012-10
1 48545U 22749AI  26037.47809028  .00000000  00000+0  00000-0 0  9995
2 48545  50.0000 330.0000 0000000   0.0000  96.0000  6.30405331    10
